OBJECT_NAME,OBJECT_ID,EPOCH,MEAN_MOTION,ECCENTRICITY,INCLINATION,RA_OF_ASC_NODE,ARG_OF_PERICENTER,MEAN_ANOMALY,EPHEMERIS_TYPE,CLASSIFICATION_TYPE,NORAD_CAT_ID,ELEMENT_SET_NO,REV_AT_EPOCH,BSTAR,MEAN_MOTION_DOT,MEAN_MOTION_DDOT
STARLINK-37608,2026-101N,2026-06-27T03:48:29.685024,15.33442051,.0002336,97.2858,32.9055,85.9648,274.1862,0,U,69037,999,810,.48647E-3,.15662E-3,0
STARLINK-37466,2026-101P,2026-06-27T03:21:05.875776,15.33468599,.0000629,97.2849,32.9295,118.4304,241.7002,0,U,69038,999,810,.58915E-3,.19007E-3,0
STARLINK-37612,2026-101Q,2026-06-27T03:09:20.469024,15.33440477,.0001975,97.2852,32.7925,95.9509,264.1958,0,U,69039,999,809,.51334E-3,.16532E-3,0
STARLINK-37616,2026-101R,2026-06-27T03:13:15.205728,15.33449930,.0001482,97.2838,32.7869,78.1157,282.0252,0,U,69040,999,809,.64291E-3,.20741E-3,0
STARLINK-37614,2026-101S,2026-06-27T02:57:35.442432,15.33446648,.000121,97.2832,32.8009,87.8720,272.2662,0,U,69041,999,809,.55762E-3,.17971E-3,0
STARLINK-37644,2026-101T,2026-06-27T04:11:59.212032,15.33462949,.0001794,97.2842,32.8817,112.2627,247.8806,0,U,69042,999,810,.63738E-3,.2057E-3,0
STARLINK-37571,2026-101U,2026-06-27T04:19:48.978336,15.33442455,.0002326,97.2852,32.8773,86.3957,273.7551,0,U,69043,999,810,.73909E-3,.2386E-3,0
STARLINK-37664,2026-101V,2026-06-27T04:08:04.059744,15.33448705,.0001368,97.2850,32.8866,92.0143,268.1256,0,U,69044,999,810,.61345E-3,.19784E-3,0
STARLINK-37667,2026-101W,2026-06-27T03:56:19.663872,15.33429752,.0001418,97.2854,32.9000,96.1747,263.9658,0,U,69045,999,810,.87617E-3,.28304E-3,0
STARLINK-37666,2026-101X,2026-06-27T03:32:50.026272,15.33455418,.0002192,97.2845,32.9202,90.1791,269.9702,0,U,69046,999,810,.71919E-3,.23223E-3,0
STARLINK-37576,2026-101Y,2026-06-27T03:25:00.316992,15.33441825,.0002492,97.2858,32.9305,90.8723,269.2805,0,U,69047,999,810,.66643E-3,.215E-3,0
STARLINK-37663,2026-101Z,2026-06-27T03:44:34.518048,15.33449897,.0001494,97.2851,32.9089,98.5681,261.5731,0,U,69048,999,810,.62865E-3,.20278E-3,0
TIANZHOU-10,2026-102A,2026-06-26T21:26:46.575168,15.61230203,.00080379,41.4690,262.9148,159.7037,200.4122,0,U,69049,999,745,.26301828E-3,.22691E-3,0
QIANFAN-127,2026-104A,2026-06-27T01:00:44.435808,13.81285867,.0011853,88.9876,340.5259,66.5557,293.6856,0,U,69073,999,645,-.20401E+1,-.2019396E-1,0
QIANFAN-128,2026-104B,2026-06-27T01:30:25.315200,13.77788570,.0010086,88.9863,340.5472,42.9779,317.2173,0,U,69074,999,644,-.18387E+1,-.1716244E-1,0
QIANFAN-129,2026-104C,2026-06-27T02:27:32.092128,13.83819206,.0011331,88.9862,340.4964,55.0563,305.1670,0,U,69075,999,647,-.19515E+1,-.2016224E-1,0
QIANFAN-130,2026-104D,2026-06-27T04:29:35.420064,13.83168306,.0008684,88.9875,340.5283,53.0869,307.1095,0,U,69076,999,646,.31375E-4,.48E-6,0
QIANFAN-131,2026-104E,2026-06-27T01:12:46.552320,13.81277283,.0011447,88.9857,340.5256,79.2841,280.9616,0,U,69077,999,645,-.1992E+1,-.1974481E-1,0
QIANFAN-132,2026-104F,2026-06-27T03:55:14.114784,13.78856281,.0007502,88.9872,340.5433,48.8747,311.3066,0,U,69078,999,645,.33711E-4,.47E-6,0
QIANFAN-133,2026-104G,2026-06-27T03:52:10.169184,13.85020500,.0008062,88.9875,340.5245,48.3386,311.8473,0,U,69079,999,646,.29176E-4,.46E-6,0
QIANFAN-134,2026-104H,2026-06-27T01:14:46.923936,13.76546087,.0003568,88.9868,340.5445,85.6418,274.5155,0,U,69080,999,644,-.22783E+1,-.2078142E-1,0
QIANFAN-135,2026-104J,2026-06-27T02:19:57.273024,13.79260733,.0008208,88.9863,340.5330,72.8090,287.3975,0,U,69081,999,645,-.2038E+1,-.1953698E-1,0
QIANFAN-136,2026-104K,2026-06-27T02:15:32.385312,13.78780748,.0011073,88.9863,340.5327,64.2916,295.9393,0,U,69082,999,645,-.21501E+1,-.2039185E-1,0
QIANFAN-137,2026-104L,2026-06-27T02:40:18.954336,13.93807219,.0010221,88.9868,340.4603,56.7349,303.4804,0,U,69083,999,649,-.15729E+1,-.1934353E-1,0
QIANFAN-138,2026-104M,2026-06-27T03:47:59.231616,13.80635546,.0007799,88.9868,340.5230,55.5803,304.6101,0,U,69084,999,646,.34192E-4,.49E-6,0
QIANFAN-139,2026-104N,2026-06-27T01:17:30.109344,13.78807687,.0006754,88.9859,340.5265,83.3788,276.8147,0,U,69085,999,645,-.20788E+1,-.1976146E-1,0
QIANFAN-140,2026-104P,2026-06-27T02:52:39.592416,13.81008184,.0011157,88.9869,340.5189,42.0263,318.1759,0,U,69086,999,646,-.19788E+1,-.1953843E-1,0
QIANFAN-141,2026-104Q,2026-06-27T02:18:54.828288,13.83678267,.0009995,88.9868,340.5146,68.2794,291.9439,0,U,69087,999,646,-.18543E+1,-.1917503E-1,0
QIANFAN-142,2026-104R,2026-06-27T01:45:51.230304,13.84581904,.0009241,88.9868,340.5111,78.7437,281.4771,0,U,69088,999,646,-.1675E+1,-.1750225E-1,0
QIANFAN-143,2026-104S,2026-06-27T01:24:45.895392,13.83639456,.000841,88.9870,340.5080,81.4016,278.8106,0,U,69089,999,646,-.17708E+1,-.1815971E-1,0
