STARLINK-37608          
1 69037U 26101N   26178.15867691  .00015662  00000+0  48647-3 0  9993
2 69037  97.2858  32.9055 0002336  85.9648 274.1862 15.33442051  8101
STARLINK-37466          
1 69038U 26101P   26178.13965134  .00019007  00000+0  58915-3 0  9999
2 69038  97.2849  32.9295 0000629 118.4304 241.7002 15.33468599  8103
STARLINK-37612          
1 69039U 26101Q   26178.13148691  .00016532  00000+0  51334-3 0  9999
2 69039  97.2852  32.7925 0001975  95.9509 264.1958 15.33440477  8099
STARLINK-37616          
1 69040U 26101R   26178.13420377  .00020741  00000+0  64291-3 0  9998
2 69040  97.2838  32.7869 0001482  78.1157 282.0252 15.33449930  8096
STARLINK-37614          
1 69041U 26101S   26178.12332688  .00017971  00000+0  55762-3 0  9999
2 69041  97.2832  32.8009 0001210  87.8720 272.2662 15.33446648  8099
STARLINK-37644          
1 69042U 26101T   26178.17499088  .00020570  00000+0  63738-3 0  9994
2 69042  97.2842  32.8817 0001794 112.2627 247.8806 15.33462949  8106
STARLINK-37571          
1 69043U 26101U   26178.18042799  .00023860  00000+0  73909-3 0  9995
2 69043  97.2852  32.8773 0002326  86.3957 273.7551 15.33442455  8103
STARLINK-37664          
1 69044U 26101V   26178.17226921  .00019784  00000+0  61345-3 0  9997
2 69044  97.2850  32.8866 0001368  92.0143 268.1256 15.33448705  8105
STARLINK-37667          
1 69045U 26101W   26178.16411648  .00028304  00000+0  87617-3 0  9997
2 69045  97.2854  32.9000 0001418  96.1747 263.9658 15.33429752  8102
STARLINK-37666          
1 69046U 26101X   26178.14780123  .00023223  00000+0  71919-3 0  9996
2 69046  97.2845  32.9202 0002192  90.1791 269.9702 15.33455418  8104
STARLINK-37576          
1 69047U 26101Y   26178.14236478  .00021500  00000+0  66643-3 0  9990
2 69047  97.2858  32.9305 0002492  90.8723 269.2805 15.33441825  8102
STARLINK-37663          
1 69048U 26101Z   26178.15595507  .00020278  00000+0  62865-3 0  9996
2 69048  97.2851  32.9089 0001494  98.5681 261.5731 15.33449897  8104
TIANZHOU-10             
1 69049U 26102A   26177.89359462  .00022691  00000+0  26302-3 0  9993
2 69049  41.4690 262.9148 0008037 159.7037 200.4122 15.61230203  7456
QIANFAN-127             
1 69073U 26104A   26178.04218097 -.02019396  00000+0 -20401+1 0  9991
2 69073  88.9876 340.5259 0011853  66.5557 293.6856 13.81285867  6456
QIANFAN-128             
1 69074U 26104B   26178.06279300 -.01716244  00000+0 -18387+1 0  9993
2 69074  88.9863 340.5472 0010086  42.9779 317.2173 13.77788570  6449
QIANFAN-129             
1 69075U 26104C   26178.10245477 -.02016224  00000+0 -19515+1 0  9993
2 69075  88.9862 340.4964 0011331  55.0563 305.1670 13.83819206  6473
QIANFAN-130             
1 69076U 26104D   26178.18721551  .00000048  00000+0  31375-4 0  9999
2 69076  88.9875 340.5283 0008684  53.0869 307.1095 13.83168306  6467
QIANFAN-131             
1 69077U 26104E   26178.05053880 -.01974481  00000+0 -19920+1 0  9991
2 69077  88.9857 340.5256 0011447  79.2841 280.9616 13.81277283  6458
QIANFAN-132             
1 69078U 26104F   26178.16335781  .00000047  00000+0  33711-4 0  9990
2 69078  88.9872 340.5433 0007502  48.8747 311.3066 13.78856281  6452
QIANFAN-133             
1 69079U 26104G   26178.16122881  .00000046  00000+0  29176-4 0  9995
2 69079  88.9875 340.5245 0008062  48.3386 311.8473 13.85020500  6466
QIANFAN-134             
1 69080U 26104H   26178.05193199 -.02078142  00000+0 -22783+1 0  9994
2 69080  88.9868 340.5445 0003568  85.6418 274.5155 13.76546087  6441
QIANFAN-135             
1 69081U 26104J   26178.09719066 -.01953698  00000+0 -20380+1 0  9994
2 69081  88.9863 340.5330 0008208  72.8090 287.3975 13.79260733  6457
QIANFAN-136             
1 69082U 26104K   26178.09412483 -.02039185  00000+0 -21501+1 0  9991
2 69082  88.9863 340.5327 0011073  64.2916 295.9393 13.78780748  6451
QIANFAN-137             
1 69083U 26104L   26178.11133049 -.01934353  00000+0 -15729+1 0  9998
2 69083  88.9868 340.4603 0010221  56.7349 303.4804 13.93807219  6499
QIANFAN-138             
1 69084U 26104M   26178.15832444  .00000049  00000+0  34192-4 0  9990
2 69084  88.9868 340.5230 0007799  55.5803 304.6101 13.80635546  6463
QIANFAN-139             
1 69085U 26104N   26178.05382071 -.01976146  00000+0 -20788+1 0  9991
2 69085  88.9859 340.5265 0006754  83.3788 276.8147 13.78807687  6456
QIANFAN-140             
1 69086U 26104P   26178.11990269 -.01953843  00000+0 -19788+1 0  9990
2 69086  88.9869 340.5189 0011157  42.0263 318.1759 13.81008184  6465
QIANFAN-141             
1 69087U 26104Q   26178.09646792 -.01917503  00000+0 -18543+1 0  9998
2 69087  88.9868 340.5146 0009995  68.2794 291.9439 13.83678267  6464
QIANFAN-142             
1 69088U 26104R   26178.07350961 -.01750225  00000+0 -16750+1 0  9991
2 69088  88.9868 340.5111 0009241  78.7437 281.4771 13.84581904  6466
QIANFAN-143             
1 69089U 26104S   26178.05886453 -.01815971  00000+0 -17708+1 0  9994
2 69089  88.9870 340.5080 0008410  81.4016 278.8106 13.83639456  6463
